#dP2019  1  2  0  0  0.00000000      96 __u+U ITR00 FIT  IAC
## 2034 259200.00000000   900.00000000 58485 0.0000000000000
+   96   C01C02C03C04C05C06C07C08C09C10C11C12C13C14C30E01E02
+        E03E04E05E07E08E09E11E12E13E14E15E18E19E21E24E25E26
+        E27E30E31E33E36G01G02G03G04G05G06G07G08G09G10G11G12
+        G13G14G15G16G17G18G19G20G21G22G23G24G25G26G27G28G29
+        G30G31G32J01J02J03R01R02R03R04R05R07R08R09R10R11R13
+        R14R15R17R18R19R20R21R22R23R24R26  0  0  0  0  0  0
++        13  0 12 13 12 10  9  9  9  9  8  8  9  8 11  5  5
++         6  6  6  6  6  6  6  6  6  5  7  6  6  5  6  5  5
++         5  5  5  7  7  4  4  4  5  4  4  4  4  4  4  4  4
++         4  4  4  4  4  4  4  4  4  4  4  4  4  4  4  4  4
++         4  4  4 12 11 13  6  6  6  6  6  6  6  6  6  6  6
++         6  6  6  6  6  6  5  6  6  6  9  0  0  0  0  0  0
%c M  cc GPS ccc cccc cccc cccc cccc ccccc ccccc ccccc ccccc
%c cc cc ccc ccc cccc cccc cccc cccc ccccc ccccc ccccc ccccc
%f  0.0000000  0.000000000  0.00000000000  0.000000000000000
%f  0.0000000  0.000000000  0.00000000000  0.000000000000000
%i    0    0    0    0      0      0      0      0         0
%i    0    0    0    0      0      0      0      0         0
/* INFORMATION & ANALYSIS CENTER (IAC) OF MCC   (RAPID DATA)
/* S/V CLOCKS ARE ALIGNED TO GPS & GLONASS TIME RESPECTIVELY
/* USING THE BROADCAST EPHEMERIS                            
/* PCV:IGS14_2029 OL/AL:FES2004  NONE     YN ORB:CoN CLK:CoN
*  2019 01 02  7  0  0.00000000
PC01 -32308.190795  27108.816894   -545.852833     36.877895
PC02      0.000000      0.000000      0.000000 999999.999999
PC03 -14699.005180  39506.908852   -498.262253   -103.587563
PC04 -39666.367536  14343.527033   -429.183659   -231.073867
PC05  21934.825435  36003.229760   -417.334670    -19.723540
PC06 -23536.816756  25890.801770  23565.272960    223.969136
PC07 -14891.363084  37790.261236  12268.210298    221.362034
PC08  -5705.132628  23032.775765 -34731.476327     78.674678
PC09  -8185.747066  26263.493861  32045.678640    416.003630
PC10  -4172.333463  42114.951632  -1837.684710   -372.919972
PC11 -27513.397473  -1110.646762  -4689.747851   -165.274442
PC12 -13808.585095 -14871.822019  19264.187230    317.033639
PC13   5201.176905  29698.713401 -29307.752242   -461.990308
PC14 -16991.919825  -3124.187853 -21852.297232    615.495133
PC30  26807.615684   6436.043250  -4374.934926     45.635121
PE01 -15842.388310   6434.882731  24164.416073   -512.004282
PE02  15831.762983  -6504.822776 -24149.045380     41.630931
PE03  27029.516921  -9750.384530   7073.861377   -117.574126
PE04 -18744.495612  19984.746477  11195.901060   -191.544290
PE05  19542.139488   6265.152011  21325.349556    132.127812
PE07   -653.360912 -18555.861520 -23051.193747   -104.920383
PE08  18536.544887 -20108.139637 -11313.726958   6431.511890
PE09    721.103719  18440.591034  23144.315659   6570.491189
PE11  11604.228975  20392.356383 -18050.214922   5718.733741
PE12  -9505.706231  13474.344913 -24570.797997   5851.392001
PE13 -11568.358728 -20276.107167  18211.642292    381.231206
PE14  19125.052116 -11295.815256  11697.591765   6465.972621
PE15   9022.039815 -13690.791228  24657.420940    924.082464
PE18 -11461.402950  19278.382136 -22400.548510   5637.077115
PE19 -26949.006984   8369.221228  -8935.370907     -9.437405
PE21 -13618.351063 -16252.429601  20655.419479   -512.388002
PE24   3547.965802  28858.581815  -5490.563916   6307.263956
PE25  13600.268715  16289.270001 -20627.678932   1936.104227
PE26 -25299.668622 -15330.037947   1194.775933   5066.589454
PE27  -3349.213588 -28996.648226   4943.982499    558.034276
PE30   8777.677840 -24998.126501 -13219.201636   5221.456134
PE31  -8883.241156  24713.549757  13666.589898    943.124469
PE33 -24417.085168   -939.973366 -16693.284909    847.850344
PE36  25489.762594  15009.122125  -1050.029159    764.488491
PG01  20170.733756  10279.294919  13966.731851   -138.573460
PG02 -13517.985808 -22152.813390   6721.275122   -102.129952
PG03  15878.375234     81.059797  21240.828084    174.323569
PG04   4972.891583  14591.044935 -21890.932294   -123.304965
PG05  -5814.937839 -19577.174420 -16992.638810      0.651189
PG06  -2438.671585 -20812.191795  16348.291179    304.933112
PG07  15414.105840  -4278.120446 -21028.774549     59.340886
PG08  20667.490223   7139.298724 -15153.104160   -127.672599
PG09  24737.977161  -8016.198380  -5479.616279    476.547555
PG10 -11033.778308  23933.305624  -2279.377962    142.363446
PG11  24527.555270   8813.414566   3909.885226   -680.898646
PG12 -14163.035981  -4053.565109  21892.822355    279.677809
PG13 -13531.274388 -12772.950420 -19083.172488    -79.668151
PG14  -3097.397565  15429.081463  21678.672970    -93.783933
PG15 -23107.563890  -4370.817767 -12966.405065   -333.906239
PG16   3429.993329  19501.795834 -17648.686753    -10.234809
PG17  13444.642155 -13783.802410  18656.379389    -10.358601
PG18  19487.540050  17485.872262   4420.851529     11.690312
PG19   3717.038719 -14634.774856  21570.984469   -367.645229
PG20 -14236.112436  18954.622874 -11963.077863    520.657235
PG21 -12766.666039   8328.961736 -20944.430089   -276.547474
PG22  13976.457675   8509.081032  21157.144900   -613.187356
PG23  26379.075151   -860.659136   4852.856200   -201.771066
PG24 -21015.657040 -13319.762429   9598.317708    -60.273282
PG25 -16861.203646   8497.493841  18384.258549   -700.002415
PG26  -2216.117342  24774.810828  -9085.172609     84.870231
PG27  11382.021605  12370.434044 -20717.899347    -42.070166
PG28  13412.372807 -22720.459728  -2789.215851    760.625918
PG29 -26127.597575   3998.258061  -2621.115410    302.339112
PG30   7241.879775 -15295.638162 -20416.631496    -29.317129
PG31   4167.068339  21924.906773  14070.867894     68.634353
PG32 -10689.065654  15228.713146  18955.474105   -292.964675
PJ01 -24984.587748  33490.398260  -1367.829577   -225.149174
PJ02 -24827.756393  23943.389492  28981.983016     -0.821743
PJ03 -31837.445022  20438.525605 -13657.956147      3.012072
PR01  13286.996386   2094.472328  21663.950414     37.331071
PR02  20504.251222 -13281.520505   7459.893233    347.364967
PR03  14044.238512 -18784.575839 -10051.428656    153.362499
PR04  -1038.564544 -13026.734902 -21901.234802    289.742438
PR05 -14604.255832   -204.328313 -20904.189568     19.040479
PR07 -13660.518766  18754.605771  10581.671525    -55.016337
PR08    404.552971  13448.755970  21712.603987     19.745396
PR09  -9280.581031   8573.785743  22183.599868     46.861600
PR10  -1939.788053  21934.861063  12923.164660     38.803016
PR11   7124.372137  24013.087005  -4918.596337    -52.175560
PR13   9285.384182  -7430.935985 -22581.890553    -18.538021
PR14   1935.373103 -21920.874489 -12880.950847     34.538984
PR15  -6747.605070 -24258.974744   4131.732106     99.104798
PR17   6248.943528  -9052.112720  23026.884445    192.824645
PR18 -11469.271433 -12951.604809  18741.250902     29.058518
PR19 -22928.679856 -10393.277237   4136.316069    -62.281721
PR20 -20994.109381   -826.030180 -14419.493089   -364.287435
PR21  -5735.941805   9161.429162 -23099.086410    -23.270281
PR22  13839.828797  12992.282888 -17094.518681    -64.362288
PR23  24191.902132   8057.856781    688.409695    200.640123
PR24  20235.892662   -393.616462  15514.606592   -175.587842
PR26 -22032.914898  -1503.394482 -12772.539896     13.666797
EOF
